CCSDS_OMM_VERS = 2.0
CREATION_DATE  = 
ORIGINATOR     = 

OBJECT_NAME    = STARLINK-36924
OBJECT_ID      = 2026-041Q
CENTER_NAME    = EARTH
REF_FRAME      = TEME
TIME_SYSTEM    = UTC
MEAN_ELEMENT_THEORY = SGP/SGP4

EPOCH          = 2026-03-11T06:00:02.000160
MEAN_MOTION    = 15.88860212
ECCENTRICITY   = .00006733
INCLINATION    = 53.1584
RA_OF_ASC_NODE = 54.2609
ARG_OF_PERICENTER = 86.1263
MEAN_ANOMALY   = 351.6931

EPHEMERIS_TYPE = 0
CLASSIFICATION_TYPE = U
NORAD_CAT_ID   = 68054
ELEMENT_SET_NO = 999
REV_AT_EPOCH   = 262
BSTAR          = -.62156821E-2
MEAN_MOTION_DOT = -.1584384E-1
MEAN_MOTION_DDOT = 0

CCSDS_OMM_VERS = 2.0
CREATION_DATE  = 
ORIGINATOR     = 

OBJECT_NAME    = STARLINK-35998
OBJECT_ID      = 2026-041R
CENTER_NAME    = EARTH
REF_FRAME      = TEME
TIME_SYSTEM    = UTC
MEAN_ELEMENT_THEORY = SGP/SGP4

EPOCH          = 2026-03-11T06:00:02.000160
MEAN_MOTION    = 15.88725629
ECCENTRICITY   = .00007018
INCLINATION    = 53.1588
RA_OF_ASC_NODE = 54.2667
ARG_OF_PERICENTER = 81.5870
MEAN_ANOMALY   = 353.0576

EPHEMERIS_TYPE = 0
CLASSIFICATION_TYPE = U
NORAD_CAT_ID   = 68055
ELEMENT_SET_NO = 999
REV_AT_EPOCH   = 258
BSTAR          = -.62401324E-2
MEAN_MOTION_DOT = -.1580368E-1
MEAN_MOTION_DDOT = 0

CCSDS_OMM_VERS = 2.0
CREATION_DATE  = 
ORIGINATOR     = 

OBJECT_NAME    = STARLINK-36845
OBJECT_ID      = 2026-041S
CENTER_NAME    = EARTH
REF_FRAME      = TEME
TIME_SYSTEM    = UTC
MEAN_ELEMENT_THEORY = SGP/SGP4

EPOCH          = 2026-03-11T06:00:02.000160
MEAN_MOTION    = 15.88995445
ECCENTRICITY   = .00008318
INCLINATION    = 53.1583
RA_OF_ASC_NODE = 54.2541
ARG_OF_PERICENTER = 82.9974
MEAN_ANOMALY   = 357.9392

EPHEMERIS_TYPE = 0
CLASSIFICATION_TYPE = U
NORAD_CAT_ID   = 68056
ELEMENT_SET_NO = 999
REV_AT_EPOCH   = 262
BSTAR          = -.61558828E-2
MEAN_MOTION_DOT = -.1580635E-1
MEAN_MOTION_DDOT = 0

CCSDS_OMM_VERS = 2.0
CREATION_DATE  = 
ORIGINATOR     = 

OBJECT_NAME    = STARLINK-36954
OBJECT_ID      = 2026-041T
CENTER_NAME    = EARTH
REF_FRAME      = TEME
TIME_SYSTEM    = UTC
MEAN_ELEMENT_THEORY = SGP/SGP4

EPOCH          = 2026-03-11T06:00:02.000160
MEAN_MOTION    = 15.89125157
ECCENTRICITY   = .00007677
INCLINATION    = 53.1585
RA_OF_ASC_NODE = 54.2475
ARG_OF_PERICENTER = 87.8867
MEAN_ANOMALY   = 356.2041

EPHEMERIS_TYPE = 0
CLASSIFICATION_TYPE = U
NORAD_CAT_ID   = 68057
ELEMENT_SET_NO = 999
REV_AT_EPOCH   = 262
BSTAR          = -.61138949E-2
MEAN_MOTION_DOT = -.1580253E-1
MEAN_MOTION_DDOT = 0

CCSDS_OMM_VERS = 2.0
CREATION_DATE  = 
ORIGINATOR     = 

OBJECT_NAME    = STARLINK-36899
OBJECT_ID      = 2026-041U
CENTER_NAME    = EARTH
REF_FRAME      = TEME
TIME_SYSTEM    = UTC
MEAN_ELEMENT_THEORY = SGP/SGP4

EPOCH          = 2026-03-11T06:00:02.000160
MEAN_MOTION    = 15.89268644
ECCENTRICITY   = .00008274
INCLINATION    = 53.1586
RA_OF_ASC_NODE = 54.2417
ARG_OF_PERICENTER = 82.3136
MEAN_ANOMALY   = 4.6649

EPHEMERIS_TYPE = 0
CLASSIFICATION_TYPE = U
NORAD_CAT_ID   = 68058
ELEMENT_SET_NO = 999
REV_AT_EPOCH   = 262
BSTAR          = -.60327062E-2
MEAN_MOTION_DOT = -.1571926E-1
MEAN_MOTION_DDOT = 0

CCSDS_OMM_VERS = 2.0
CREATION_DATE  = 
ORIGINATOR     = 

OBJECT_NAME    = STARLINK-36917
OBJECT_ID      = 2026-041V
CENTER_NAME    = EARTH
REF_FRAME      = TEME
TIME_SYSTEM    = UTC
MEAN_ELEMENT_THEORY = SGP/SGP4

EPOCH          = 2026-03-11T06:00:02.000160
MEAN_MOTION    = 15.89381967
ECCENTRICITY   = .00008654
INCLINATION    = 53.1583
RA_OF_ASC_NODE = 54.2350
ARG_OF_PERICENTER = 90.2059
MEAN_ANOMALY   = 0.1571

EPHEMERIS_TYPE = 0
CLASSIFICATION_TYPE = U
NORAD_CAT_ID   = 68059
ELEMENT_SET_NO = 999
REV_AT_EPOCH   = 262
BSTAR          = -.60232149E-2
MEAN_MOTION_DOT = -.1577787E-1
MEAN_MOTION_DDOT = 0

CCSDS_OMM_VERS = 2.0
CREATION_DATE  = 
ORIGINATOR     = 

OBJECT_NAME    = STARLINK-36959
OBJECT_ID      = 2026-041W
CENTER_NAME    = EARTH
REF_FRAME      = TEME
TIME_SYSTEM    = UTC
MEAN_ELEMENT_THEORY = SGP/SGP4

EPOCH          = 2026-03-11T06:00:02.000160
MEAN_MOTION    = 15.89524569
ECCENTRICITY   = .00007139
INCLINATION    = 53.1585
RA_OF_ASC_NODE = 54.2281
ARG_OF_PERICENTER = 82.0181
MEAN_ANOMALY   = 11.2698

EPHEMERIS_TYPE = 0
CLASSIFICATION_TYPE = U
NORAD_CAT_ID   = 68060
ELEMENT_SET_NO = 999
REV_AT_EPOCH   = 262
BSTAR          = -.59800286E-2
MEAN_MOTION_DOT = -.1577802E-1
MEAN_MOTION_DDOT = 0

CCSDS_OMM_VERS = 2.0
CREATION_DATE  = 
ORIGINATOR     = 

OBJECT_NAME    = STARLINK-36915
OBJECT_ID      = 2026-041X
CENTER_NAME    = EARTH
REF_FRAME      = TEME
TIME_SYSTEM    = UTC
MEAN_ELEMENT_THEORY = SGP/SGP4

EPOCH          = 2026-03-11T06:00:02.000160
MEAN_MOTION    = 15.89650590
ECCENTRICITY   = .00008257
INCLINATION    = 53.1584
RA_OF_ASC_NODE = 54.2218
ARG_OF_PERICENTER = 88.4729
MEAN_ANOMALY   = 7.9436

EPHEMERIS_TYPE = 0
CLASSIFICATION_TYPE = U
NORAD_CAT_ID   = 68061
ELEMENT_SET_NO = 999
REV_AT_EPOCH   = 262
BSTAR          = -.59435043E-2
MEAN_MOTION_DOT = -.1578348E-1
MEAN_MOTION_DDOT = 0

CCSDS_OMM_VERS = 2.0
CREATION_DATE  = 
ORIGINATOR     = 

OBJECT_NAME    = STARLINK-36952
OBJECT_ID      = 2026-041Y
CENTER_NAME    = EARTH
REF_FRAME      = TEME
TIME_SYSTEM    = UTC
MEAN_ELEMENT_THEORY = SGP/SGP4

EPOCH          = 2026-03-11T06:00:02.000160
MEAN_MOTION    = 15.89770225
ECCENTRICITY   = .00007406
INCLINATION    = 53.1586
RA_OF_ASC_NODE = 54.2155
ARG_OF_PERICENTER = 84.3114
MEAN_ANOMALY   = 15.3668

EPHEMERIS_TYPE = 0
CLASSIFICATION_TYPE = U
NORAD_CAT_ID   = 68062
ELEMENT_SET_NO = 999
REV_AT_EPOCH   = 262
BSTAR          = -.59231399E-2
MEAN_MOTION_DOT = -.1582034E-1
MEAN_MOTION_DDOT = 0

CCSDS_OMM_VERS = 2.0
CREATION_DATE  = 
ORIGINATOR     = 

OBJECT_NAME    = STARLINK-37000
OBJECT_ID      = 2026-041Z
CENTER_NAME    = EARTH
REF_FRAME      = TEME
TIME_SYSTEM    = UTC
MEAN_ELEMENT_THEORY = SGP/SGP4

EPOCH          = 2026-03-11T06:00:02.000160
MEAN_MOTION    = 15.89883619
ECCENTRICITY   = .00007357
INCLINATION    = 53.1586
RA_OF_ASC_NODE = 54.2080
ARG_OF_PERICENTER = 85.2605
MEAN_ANOMALY   = 17.7157

EPHEMERIS_TYPE = 0
CLASSIFICATION_TYPE = U
NORAD_CAT_ID   = 68063
ELEMENT_SET_NO = 999
REV_AT_EPOCH   = 262
BSTAR          = -.5902774E-2
MEAN_MOTION_DOT = -.1585341E-1
MEAN_MOTION_DDOT = 0

CCSDS_OMM_VERS = 2.0
CREATION_DATE  = 
ORIGINATOR     = 

OBJECT_NAME    = STARLINK-36996
OBJECT_ID      = 2026-041AA
CENTER_NAME    = EARTH
REF_FRAME      = TEME
TIME_SYSTEM    = UTC
MEAN_ELEMENT_THEORY = SGP/SGP4

EPOCH          = 2026-03-11T06:00:02.000160
MEAN_MOTION    = 15.89998290
ECCENTRICITY   = .0000889
INCLINATION    = 53.1585
RA_OF_ASC_NODE = 54.2015
ARG_OF_PERICENTER = 87.3374
MEAN_ANOMALY   = 18.9659

EPHEMERIS_TYPE = 0
CLASSIFICATION_TYPE = U
NORAD_CAT_ID   = 68064
ELEMENT_SET_NO = 999
REV_AT_EPOCH   = 262
BSTAR          = -.58881637E-2
MEAN_MOTION_DOT = -.1590233E-1
MEAN_MOTION_DDOT = 0

CCSDS_OMM_VERS = 2.0
CREATION_DATE  = 
ORIGINATOR     = 

OBJECT_NAME    = STARLINK-36836
OBJECT_ID      = 2026-041AB
CENTER_NAME    = EARTH
REF_FRAME      = TEME
TIME_SYSTEM    = UTC
MEAN_ELEMENT_THEORY = SGP/SGP4

EPOCH          = 2026-03-11T06:00:02.000160
MEAN_MOTION    = 15.90243206
ECCENTRICITY   = .00008486
INCLINATION    = 53.1585
RA_OF_ASC_NODE = 54.1882
ARG_OF_PERICENTER = 87.7784
MEAN_ANOMALY   = 24.7577

EPHEMERIS_TYPE = 0
CLASSIFICATION_TYPE = U
NORAD_CAT_ID   = 68065
ELEMENT_SET_NO = 999
REV_AT_EPOCH   = 262
BSTAR          = -.58070263E-2
MEAN_MOTION_DOT = -.1588454E-1
MEAN_MOTION_DDOT = 0

