STARLINK-36924          
1 68054U 26041Q   26070.25002315 -.01584384  00000+0 -62157-2 0  9996
2 68054  53.1584  54.2609 0000673  86.1263 351.6931 15.88860212  2628
STARLINK-35998          
1 68055U 26041R   26070.25002315 -.01580368  00000+0 -62401-2 0  9997
2 68055  53.1588  54.2667 0000701  81.5870 353.0576 15.88725629  2580
STARLINK-36845          
1 68056U 26041S   26070.25002315 -.01580635  00000+0 -61559-2 0  9998
2 68056  53.1583  54.2541 0000831  82.9974 357.9392 15.88995445  2620
STARLINK-36954          
1 68057U 26041T   26070.25002315 -.01580253  00000+0 -61139-2 0  9999
2 68057  53.1585  54.2475 0000767  87.8867 356.2041 15.89125157  2621
STARLINK-36899          
1 68058U 26041U   26070.25002315 -.01571926  00000+0 -60327-2 0  9995
2 68058  53.1586  54.2417 0000827  82.3136   4.6649 15.89268644  2622
STARLINK-36917          
1 68059U 26041V   26070.25002315 -.01577787  00000+0 -60232-2 0  9992
2 68059  53.1583  54.2350 0000865  90.2059   0.1571 15.89381967  2629
STARLINK-36959          
1 68060U 26041W   26070.25002315 -.01577802  00000+0 -59800-2 0  9991
2 68060  53.1585  54.2281 0000713  82.0181  11.2698 15.89524569  2623
STARLINK-36915          
1 68061U 26041X   26070.25002315 -.01578348  00000+0 -59435-2 0  9992
2 68061  53.1584  54.2218 0000825  88.4729   7.9436 15.89650590  2621
STARLINK-36952          
1 68062U 26041Y   26070.25002315 -.01582034  00000+0 -59231-2 0  9994
2 68062  53.1586  54.2155 0000740  84.3114  15.3668 15.89770225  2621
STARLINK-37000          
1 68063U 26041Z   26070.25002315 -.01585341  00000+0 -59028-2 0  9993
2 68063  53.1586  54.2080 0000735  85.2605  17.7157 15.89883619  2629
STARLINK-36996          
1 68064U 26041AA  26070.25002315 -.01590233  00000+0 -58882-2 0  9997
2 68064  53.1585  54.2015 0000889  87.3374  18.9659 15.89998290  2625
STARLINK-36836          
1 68065U 26041AB  26070.25002315 -.01588454  00000+0 -58070-2 0  9999
2 68065  53.1585  54.1882 0000848  87.7784  24.7577 15.90243206  2627
